NORAD_CAT_ID,OBJECT_NAME,OBJECT_TYPE,EPOCH,MEAN_MOTION,ECCENTRICITY,INCLINATION,RA_OF_ASC_NODE,ARG_OF_PERICENTER,MEAN_ANOMALY,BSTAR,MEAN_MOTION_DOT,MEAN_MOTION_DDOT,TLE_LINE0,TLE_LINE1,TLE_LINE2,SEMIMAJOR_AXIS,PERIOD,APOGEE,PERIGEE,DECAYED
51856.0,STARLINK-3568,PAYLOAD,2023-03-18 18:42:30,15.08868934,0.0001179,53.2146,218.4469,61.5299,298.5812,0.00080807,0.00012606,0.0,0 STARLINK-3568,1 51856U 22022E   23077.77951412  .00012606  00000-0  80807-3 0  9999,2 51856  53.2146 218.4469 0001179  61.5299 298.5812 15.08868934 58967,6917.792,95.436,540.473,538.841,0.0
51856.0,STARLINK-3568,PAYLOAD,2023-03-19 02:39:26,15.08844137,6.52e-05,53.2138,216.9602,67.9006,292.2055,0.00025059,3.703e-05,0.0,0 STARLINK-3568,1 51856U 22022E   23078.11072025  .00003703  00000-0  25059-3 0  9998,2 51856  53.2138 216.9602 0000652  67.9006 292.2055 15.08844137 59017,6917.868,95.437,540.184,539.282,0.0
51856.0,STARLINK-3568,PAYLOAD,2023-03-19 13:47:07,15.08843411,0.0001036,53.2133,214.8774,86.8033,273.3078,-0.00028855,-4.877e-05,0.0,0 STARLINK-3568,1 51856U 22022E   23078.57439592 -.00004877  00000-0 -28855-3 0  9996,2 51856  53.2133 214.8774 0001036  86.8033 273.3078 15.08843411 59082,6917.87,95.437,540.452,539.018,0.0
51856.0,STARLINK-3568,PAYLOAD,2023-03-19 18:33:17,15.08843634,0.0001104,53.2153,213.9872,68.8716,291.2394,-7.7489e-05,-1.521e-05,0.0,0 STARLINK-3568,1 51856U 22022E   23078.77311847 -.00001521  00000-0 -77489-4 0  9991,2 51856  53.2153 213.9872 0001104  68.8716 291.2394 15.08843634 59118,6917.869,95.437,540.498,538.971,0.0
51856.0,STARLINK-3568,PAYLOAD,2023-03-20 13:37:54,15.08856652,0.0001233,53.2146,210.4196,64.4029,295.7091,0.00098312,0.000154,0.0,0 STARLINK-3568,1 51856U 22022E   23079.56799593  .00015400  00000-0  98312-3 0  9993,2 51856  53.2146 210.4196 0001233  64.4029 295.7091 15.08856652 59233,6917.829,95.437,540.547,538.842,0.0
51856.0,STARLINK-3568,PAYLOAD,2023-03-20 15:13:17,15.088635,0.0001243,53.2152,210.1215,68.0748,292.0376,0.0011694,0.00018384,0.0,0 STARLINK-3568,1 51856U 22022E   23079.63423409  .00018384  00000-0  11694-2 0  9992,2 51856  53.2152 210.1215 0001243  68.0748 292.0376 15.08863500 59245,6917.809,95.436,540.533,538.814,0.0
51856.0,STARLINK-3568,PAYLOAD,2023-03-20 19:59:26,15.08882641,0.000126,53.2156,209.2289,69.9691,290.1437,0.0015796,0.0002497,0.0,0 STARLINK-3568,1 51856U 22022E   23079.83294745  .00024970  00000-0  15796-2 0  9998,2 51856  53.2156 209.2289 0001260  69.9691 290.1437 15.08882641 59272,6917.75,95.435,540.487,538.743,0.0
51856.0,STARLINK-3568,PAYLOAD,2023-03-21 11:53:18,15.08853883,0.0001251,53.2155,206.2564,68.862,291.2506,0.00026149,3.878e-05,0.0,0 STARLINK-3568,1 51856U 22022E   23080.49534838  .00003878  00000-0  26149-3 0  9991,2 51856  53.2155 206.2564 0001251  68.8620 291.2506 15.08853883 59370,6917.838,95.437,540.568,538.838,0.0
51856.0,STARLINK-3568,PAYLOAD,2023-03-21 13:28:41,15.08855714,0.0001288,53.2156,205.9591,66.766,293.3468,0.00037616,5.706e-05,0.0,0 STARLINK-3568,1 51856U 22022E   23080.56158780  .00005706  00000-0  37616-3 0  9990,2 51856  53.2156 205.9591 0001288  66.7660 293.3468 15.08855714 59384,6917.832,95.437,540.588,538.806,0.0
51856.0,STARLINK-3568,PAYLOAD,2023-03-21 19:50:13,15.08868876,0.0001287,53.216,204.7682,81.4928,278.621,0.0010647,0.00016711,0.0,0 STARLINK-3568,1 51856U 22022E   23080.82654303  .00016711  00000-0  10647-2 0  9993,2 51856  53.2160 204.7682 0001287  81.4928 278.6210 15.08868876 59426,6917.792,95.436,540.547,538.767,0.0
51856.0,STARLINK-3568,PAYLOAD,2023-03-22 11:44:05,15.08843598,0.0001273,53.2158,201.7928,103.7678,256.3456,0.0011574,0.00018182,0.0,0 STARLINK-3568,1 51856U 22022E   23081.48895144  .00018182  00000-0  11574-2 0  9990,2 51856  53.2158 201.7928 0001273 103.7678 256.3456 15.08843598 59528,6917.869,95.437,540.615,538.854,0.0
51856.0,STARLINK-3568,PAYLOAD,2023-03-22 19:41:00,15.08873171,0.000118,53.2158,200.3069,102.8384,257.274,0.0028081,0.00044727,0.0,0 STARLINK-3568,1 51856U 22022E   23081.82014838  .00044727  00000-0  28081-2 0  9996,2 51856  53.2158 200.3069 0001180 102.8384 257.2740 15.08873171 59571,6917.779,95.435,540.46,538.828,0.0
51856.0,STARLINK-3568,PAYLOAD,2023-03-23 13:10:15,15.08847961,0.0001423,53.2167,197.0347,107.328,252.7867,0.0014214,0.00022411,0.0,0 STARLINK-3568,1 51856U 22022E   23082.54879260  .00022411  00000-0  14214-2 0  9993,2 51856  53.2167 197.0347 0001423 107.3280 252.7867 15.08847961 59687,6917.856,95.437,540.705,538.737,0.0
51856.0,STARLINK-3568,PAYLOAD,2023-03-24 00:17:57,15.08851899,0.0001462,53.2162,194.9568,92.0395,268.0765,0.001315,0.00020709,0.0,0 STARLINK-3568,1 51856U 22022E   23083.01247383  .00020709  00000-0  13150-2 0  9997,2 51856  53.2162 194.9568 0001462  92.0395 268.0765 15.08851899 59753,6917.844,95.437,540.72,538.698,0.0
51856.0,STARLINK-3568,PAYLOAD,2023-03-24 13:01:02,15.08868368,0.0001801,53.2166,192.5794,97.2248,262.8949,0.0010232,0.00016046,0.0,0 STARLINK-3568,1 51856U 22022E   23083.54238836  .00016046  00000-0  10232-2 0  9995,2 51856  53.2166 192.5794 0001801  97.2248 262.8949 15.08868368 59837,6917.794,95.436,540.905,538.413,0.0
51856.0,STARLINK-3568,PAYLOAD,2023-03-24 19:22:33,15.08903232,0.0001686,53.2156,191.3844,116.6525,243.464,0.0020158,0.00031995,0.0,0 STARLINK-3568,1 51856U 22022E   23083.80733423  .00031995  00000-0  20158-2 0  9994,2 51856  53.2156 191.3844 0001686 116.6525 243.4640 15.08903232 59871,6917.687,95.434,540.718,538.386,0.0
51856.0,STARLINK-3568,PAYLOAD,2023-03-25 00:08:44,15.08795693,0.00014,53.2153,190.4973,156.7662,203.3394,-0.0025458,-0.00040528,0.0,0 STARLINK-3568,1 51856U 22022E   23084.00606978 -.00040528  00000-0 -25458-2 0  9993,2 51856  53.2153 190.4973 0001400 156.7662 203.3394 15.08795693 59907,6918.016,95.44,540.849,538.912,0.0
51856.0,STARLINK-3568,PAYLOAD,2023-03-25 12:51:51,15.08782952,0.0001584,53.2153,188.1173,128.7685,231.3449,0.0018543,0.000293,0.0,0 STARLINK-3568,1 51856U 22022E   23084.53601465  .00029300  00000-0  18543-2 0  9997,2 51856  53.2153 188.1173 0001584 128.7685 231.3449 15.08782952 59984,6918.055,95.441,541.016,538.824,0.0
51856.0,STARLINK-3568,PAYLOAD,2023-03-25 16:02:38,15.08788236,0.0001658,53.215,187.5226,126.0255,234.0891,0.0031948,0.00050852,0.0,0 STARLINK-3568,1 51856U 22022E   23084.66850211  .00050852  00000-0  31948-2 0  9996,2 51856  53.2150 187.5226 0001658 126.0255 234.0891 15.08788236 60006,6918.039,95.441,541.051,538.757,0.0
51856.0,STARLINK-3568,PAYLOAD,2023-03-25 23:59:34,15.08836634,0.0001615,53.2151,186.0384,127.2682,232.8457,0.0038691,0.00061824,0.0,0 STARLINK-3568,1 51856U 22022E   23084.99970603  .00061824  00000-0  38691-2 0  9993,2 51856  53.2151 186.0384 0001615 127.2682 232.8457 15.08836634 60051,6917.891,95.438,540.873,538.638,0.0
51856.0,STARLINK-3568,PAYLOAD,2023-03-26 12:42:38,15.08886205,0.0001571,53.2151,183.6588,125.3543,234.7596,0.0030175,0.00048125,0.0,0 STARLINK-3568,1 51856U 22022E   23085.52961768  .00048125  00000-0  30175-2 0  9993,2 51856  53.2151 183.6588 0001571 125.3543 234.7596 15.08886205 60139,6917.739,95.435,540.691,538.517,0.0
51856.0,STARLINK-3568,PAYLOAD,2023-03-26 19:04:10,15.08900145,0.0001552,53.215,182.4693,125.4218,234.6919,0.0025751,0.00041001,0.0,0 STARLINK-3568,1 51856U 22022E   23085.79456923  .00041001  00000-0  25751-2 0  9994,2 51856  53.2150 182.4693 0001552 125.4218 234.6919 15.08900145 60173,6917.697,95.434,540.635,538.488,0.0
51856.0,STARLINK-3568,PAYLOAD,2023-03-26 23:50:20,15.08876641,0.0001741,53.2142,181.5777,96.1168,264.0022,0.0021846,0.00034687,0.0,0 STARLINK-3568,1 51856U 22022E   23085.99329286  .00034687  00000-0  21846-2 0  9990,2 51856  53.2142 181.5777 0001741  96.1168 264.0022 15.08876641 60204,6917.768,95.435,540.838,538.429,0.0
51856.0,STARLINK-3568,PAYLOAD,2023-03-27 12:33:24,15.08883275,0.0001365,53.2151,179.1956,130.171,229.9402,0.002805,0.0004469,0.0,0 STARLINK-3568,1 51856U 22022E   23086.52320166  .00044690  00000-0  28050-2 0  9997,2 51856  53.2151 179.1956 0001365 130.1710 229.9402 15.08883275 60281,6917.748,95.435,540.557,538.669,0.0
51856.0,STARLINK-3568,PAYLOAD,2023-03-27 17:19:33,15.08885979,0.0001635,53.2151,178.3026,126.8723,233.2419,0.0017203,0.00027231,0.0,0 STARLINK-3568,1 51856U 22022E   23086.72191669  .00027231  00000-0  17203-2 0  9993,2 51856  53.2151 178.3026 0001635 126.8723 233.2419 15.08885979 60319,6917.74,95.435,540.736,538.474,0.0
51856.0,STARLINK-3568,PAYLOAD,2023-03-27 23:41:05,15.08914099,0.0001273,53.2147,177.1145,119.4499,240.662,0.0026626,0.00042429,0.0,0 STARLINK-3568,1 51856U 22022E   23086.98686567  .00042429  00000-0  26626-2 0  9992,2 51856  53.2147 177.1145 0001273 119.4499 240.6620 15.08914099 60355,6917.654,95.433,540.4,538.638,0.0
51856.0,STARLINK-3568,PAYLOAD,2023-03-28 12:24:11,15.08852886,0.0001245,53.2142,174.7418,111.5939,248.5186,0.0012601,0.0001983,0.0,0 STARLINK-3568,1 51856U 22022E   23087.51680114  .00019830  00000-0  12601-2 0  9992,2 51856  53.2142 174.7418 0001245 111.5939 248.5186 15.08852886 60435,6917.841,95.437,540.567,538.845,0.0
51856.0,STARLINK-3568,PAYLOAD,2023-03-28 17:10:20,15.08869253,0.0001339,53.2142,173.8448,120.9819,239.1305,0.0021283,0.00033774,0.0,0 STARLINK-3568,1 51856U 22022E   23087.71551694  .00033774  00000-0  21283-2 0  9993,2 51856  53.2142 173.8448 0001339 120.9819 239.1305 15.08869253 60461,6917.791,95.436,540.582,538.73,0.0
51856.0,STARLINK-3568,PAYLOAD,2023-03-29 12:14:58,15.08864197,0.0001156,53.2151,170.2745,83.9747,276.1377,0.0021396,0.00033951,0.0,0 STARLINK-3568,1 51856U 22022E   23088.51039945  .00033951  00000-0  21396-2 0  9994,2 51856  53.2151 170.2745 0001156  83.9747 276.1377 15.08864197 60582,6917.806,95.436,540.471,538.872,0.0
51856.0,STARLINK-3568,PAYLOAD,2023-03-29 21:47:17,15.08834514,0.0001203,53.2153,168.4905,94.21,265.903,-0.00079671,-0.00012943,0.0,0 STARLINK-3568,1 51856U 22022E   23088.90783970 -.00012943  00000-0 -79671-3 0  9991,2 51856  53.2153 168.4905 0001203  94.2100 265.9030 15.08834514 60641,6917.897,95.438,540.594,538.93,0.0
